NORAD_CAT_ID,OBJECT_NAME,OBJECT_TYPE,EPOCH,MEAN_MOTION,ECCENTRICITY,INCLINATION,RA_OF_ASC_NODE,ARG_OF_PERICENTER,MEAN_ANOMALY,BSTAR,MEAN_MOTION_DOT,MEAN_MOTION_DDOT,TLE_LINE0,TLE_LINE1,TLE_LINE2,SEMIMAJOR_AXIS,PERIOD,APOGEE,PERIGEE,DECAYED
50849.0,STARLINK-3311,PAYLOAD,2024-08-21 04:15:09,15.08847991,0.0001288,53.216,197.7997,90.5829,269.5311,0.00021359,3.114e-05,0.0,0 STARLINK-3311,1 50849U 22001AY  24234.17719175  .00003114  00000-0  21359-3 0  9996,2 50849  53.2160 197.7997 0001288  90.5829 269.5311 15.08847991144891,6917.856,95.437,540.612,538.83,0.0
50849.0,STARLINK-3311,PAYLOAD,2024-08-21 21:44:24,15.08838236,0.0001505,53.2169,194.5293,96.9813,263.1351,3.4144e-05,2.55e-06,0.0,0 STARLINK-3311,1 50849U 22001AY  24234.90583684  .00000255  00000-0  34144-4 0  9991,2 50849  53.2169 194.5293 0001505  96.9813 263.1351 15.08838236146202,6917.886,95.438,540.792,538.71,0.0
